start=new Date('2021-10-13T00:00:00.000Z').valueOf();
sats=[{"NORAD_CAT_ID":"49148","OBJECT_TYPE":"PAYLOAD","SITE":"AFWTR","MEAN_ANOMALY":"30.9182","REV_AT_EPOCH":"368","ARG_OF_PERICENTER":"286.6418","CENTER_NAME":"EARTH","INCLINATION":"70.0010","OBJECT_ID":"2021-082U","RA_OF_ASC_NODE":"45.9300","MEAN_ELEMENT_THEORY":"SGP4","EPHEMERIS_TYPE":"0","MEAN_MOTION_DOT":"-0.00083846","TLE_LINE1":"1 49148U 21082U   21285.91668981 -.00083846  00000-0 -70535-3 0  9999","BSTAR":"-0.00070535000000","EPOCH":"2021-10-12T22:00:01.999584","TIME_SYSTEM":"UTC","RCS_SIZE":"LARGE","PERIOD":"91.730","MEAN_MOTION_DDOT":"0.0000000000000","ECCENTRICITY":"0.00040630","FILE":"3159338","MEAN_MOTION":"15.69822311","SEMIMAJOR_AXIS":"6737.542","APOAPSIS":"362.145","REF_FRAME":"TEME","GP_ID":"187016440","PERIAPSIS":"356.670","TLE_LINE2":"2 49148  70.0010  45.9300 0004063 286.6418  30.9182 15.69822311  3683","CLASSIFICATION_TYPE":"U","COUNTRY_CODE":"US","OBJECT_NAME":"STARLINK-3048","LAUNCH_DATE":"2021-09-14","DECAY_DATE":null,"ELEMENT_SET_NO":"999"},{"OBJECT_ID":"2021-082V","INCLINATION":"70.0018","CENTER_NAME":"EARTH","ARG_OF_PERICENTER":"289.2283","TIME_SYSTEM":"UTC","EPOCH":"2021-10-12T22:00:01.999584","BSTAR":"-0.00005192300000","MEAN_MOTION_DOT":"-0.00006411","TLE_LINE1":"1 49149U 21082V   21285.91668981 -.00006411  00000-0 -51923-4 0  9994","EPHEMERIS_TYPE":"0","MEAN_ELEMENT_THEORY":"SGP4","RA_OF_ASC_NODE":"45.9324","OBJECT_TYPE":"PAYLOAD","NORAD_CAT_ID":"49149","REV_AT_EPOCH":"368","MEAN_ANOMALY":"26.2274","SITE":"AFWTR","COUNTRY_CODE":"US","TLE_LINE2":"2 49149  70.0018  45.9324 0003489 289.2283  26.2274 15.69767657  3689","CLASSIFICATION_TYPE":"U","PERIAPSIS":"357.213","GP_ID":"187016993","REF_FRAME":"TEME","ELEMENT_SET_NO":"999","DECAY_DATE":null,"LAUNCH_DATE":"2021-09-14","OBJECT_NAME":"STARLINK-3053","FILE":"3159338","ECCENTRICITY":"0.00034890","MEAN_MOTION_DDOT":"0.0000000000000","PERIOD":"91.733","RCS_SIZE":"LARGE","APOAPSIS":"361.915","MEAN_MOTION":"15.69767657","SEMIMAJOR_AXIS":"6737.699"},{"NORAD_CAT_ID":"49150","OBJECT_TYPE":"PAYLOAD","SITE":"AFWTR","MEAN_ANOMALY":"33.6156","REV_AT_EPOCH":"368","CENTER_NAME":"EARTH","OBJECT_ID":"2021-082W","INCLINATION":"70.0000","ARG_OF_PERICENTER":"288.1145","BSTAR":"-0.00005675800000","EPOCH":"2021-10-12T22:00:01.999584","TIME_SYSTEM":"UTC","MEAN_ELEMENT_THEORY":"SGP4","RA_OF_ASC_NODE":"45.9239","TLE_LINE1":"1 49150U 21082W   21285.91668981 -.00006992  00000-0 -56758-4 0  9991","MEAN_MOTION_DOT":"-0.00006992","EPHEMERIS_TYPE":"0","FILE":"3159338","PERIOD":"91.732","RCS_SIZE":"LARGE","ECCENTRICITY":"0.00036350","MEAN_MOTION_DDOT":"0.0000000000000","APOAPSIS":"361.966","MEAN_MOTION":"15.69784202","SEMIMAJOR_AXIS":"6737.651","COUNTRY_CODE":"US","GP_ID":"187016547","REF_FRAME":"TEME","TLE_LINE2":"2 49150  70.0000  45.9239 0003635 288.1145  33.6156 15.69784202  3681","CLASSIFICATION_TYPE":"U","PERIAPSIS":"357.067","ELEMENT_SET_NO":"999","OBJECT_NAME":"STARLINK-3104","DECAY_DATE":null,"LAUNCH_DATE":"2021-09-14"},{"ELEMENT_SET_NO":"999","OBJECT_NAME":"STARLINK-3102","DECAY_DATE":null,"LAUNCH_DATE":"2021-09-14","COUNTRY_CODE":"US","REF_FRAME":"TEME","GP_ID":"187016333","PERIAPSIS":"356.897","TLE_LINE2":"2 49151  70.0001  45.9262 0004137 286.2065  33.4242 15.69725489  3683","CLASSIFICATION_TYPE":"U","APOAPSIS":"362.472","SEMIMAJOR_AXIS":"6737.819","MEAN_MOTION":"15.69725489","FILE":"3159338","PERIOD":"91.736","RCS_SIZE":"LARGE","MEAN_MOTION_DDOT":"0.0000000000000","ECCENTRICITY":"0.00041370","BSTAR":"-0.00004606800000","EPOCH":"2021-10-12T22:00:01.999584","TIME_SYSTEM":"UTC","MEAN_ELEMENT_THEORY":"SGP4","RA_OF_ASC_NODE":"45.9262","MEAN_MOTION_DOT":"-0.00005704","TLE_LINE1":"1 49151U 21082X   21285.91668981 -.00005704  00000-0 -46068-4 0  9995","EPHEMERIS_TYPE":"0","CENTER_NAME":"EARTH","OBJECT_ID":"2021-082X","INCLINATION":"70.0001","ARG_OF_PERICENTER":"286.2065","SITE":"AFWTR","REV_AT_EPOCH":"368","MEAN_ANOMALY":"33.4242","NORAD_CAT_ID":"49151","OBJECT_TYPE":"PAYLOAD"},{"LAUNCH_DATE":"2021-09-14","DECAY_DATE":null,"OBJECT_NAME":"STARLINK-3081","ELEMENT_SET_NO":"999","TLE_LINE2":"2 49152  70.0008  45.9164 0003955 287.5305  40.7030 15.69781868  3689","PERIAPSIS":"356.858","CLASSIFICATION_TYPE":"U","GP_ID":"187016778","REF_FRAME":"TEME","COUNTRY_CODE":"US","MEAN_MOTION":"15.69781868","SEMIMAJOR_AXIS":"6737.658","APOAPSIS":"362.188","ECCENTRICITY":"0.00039550","MEAN_MOTION_DDOT":"0.0000000000000","RCS_SIZE":"LARGE","PERIOD":"91.732","FILE":"3159338","EPHEMERIS_TYPE":"0","MEAN_MOTION_DOT":"-0.00072634","TLE_LINE1":"1 49152U 21082Y   21285.91668981 -.00072634  00000-0 -61102-3 0  9997","RA_OF_ASC_NODE":"45.9164","MEAN_ELEMENT_THEORY":"SGP4","TIME_SYSTEM":"UTC","BSTAR":"-0.00061102000000","EPOCH":"2021-10-12T22:00:01.999584","ARG_OF_PERICENTER":"287.5305","INCLINATION":"70.0008","OBJECT_ID":"2021-082Y","CENTER_NAME":"EARTH","REV_AT_EPOCH":"368","MEAN_ANOMALY":"40.7030","SITE":"AFWTR","OBJECT_TYPE":"PAYLOAD","NORAD_CAT_ID":"49152"},{"OBJECT_NAME":"STARLINK-3072","DECAY_DATE":null,"LAUNCH_DATE":"2021-09-14","ELEMENT_SET_NO":"999","GP_ID":"186991697","REF_FRAME":"TEME","CLASSIFICATION_TYPE":"U","TLE_LINE2":"2 49153  70.0011  45.9220 0003571 285.3488  38.6396 15.69754210  4626","PERIAPSIS":"357.196","COUNTRY_CODE":"US","MEAN_MOTION":"15.69754210","SEMIMAJOR_AXIS":"6737.737","APOAPSIS":"362.008","PERIOD":"91.734","RCS_SIZE":"LARGE","MEAN_MOTION_DDOT":"0.0000000000000","ECCENTRICITY":"0.00035710","FILE":"3159237","MEAN_ELEMENT_THEORY":"SGP4","RA_OF_ASC_NODE":"45.9220","MEAN_MOTION_DOT":"-0.00007570","TLE_LINE1":"1 49153U 21082Z   21285.91668981 -.00007570  00000-0 -61674-4 0  9990","EPHEMERIS_TYPE":"0","BSTAR":"-0.00006167400000","EPOCH":"2021-10-12T22:00:01.999584","TIME_SYSTEM":"UTC","ARG_OF_PERICENTER":"285.3488","CENTER_NAME":"EARTH","OBJECT_ID":"2021-082Z","INCLINATION":"70.0011","SITE":"AFWTR","REV_AT_EPOCH":"462","MEAN_ANOMALY":"38.6396","NORAD_CAT_ID":"49153","OBJECT_TYPE":"PAYLOAD"},{"ARG_OF_PERICENTER":"291.6725","INCLINATION":"70.0013","OBJECT_ID":"2021-082AA","CENTER_NAME":"EARTH","EPHEMERIS_TYPE":"0","TLE_LINE1":"1 49154U 21082AA  21285.91668981 -.00014564  00000-0 -12030-3 0  9993","MEAN_MOTION_DOT":"-0.00014564","RA_OF_ASC_NODE":"45.9139","MEAN_ELEMENT_THEORY":"SGP4","TIME_SYSTEM":"UTC","EPOCH":"2021-10-12T22:00:01.999584","BSTAR":"-0.00012030000000","OBJECT_TYPE":"PAYLOAD","NORAD_CAT_ID":"49154","REV_AT_EPOCH":"367","MEAN_ANOMALY":"38.6912","SITE":"AFWTR","TLE_LINE2":"2 49154  70.0013  45.9139 0003353 291.6725  38.6912 15.69776052  3676","PERIAPSIS":"357.281","CLASSIFICATION_TYPE":"U","REF_FRAME":"TEME","GP_ID":"187016885","COUNTRY_CODE":"US","LAUNCH_DATE":"2021-09-14","DECAY_DATE":null,"OBJECT_NAME":"STARLINK-3068","ELEMENT_SET_NO":"999","MEAN_MOTION_DDOT":"0.0000000000000","ECCENTRICITY":"0.00033530","RCS_SIZE":"LARGE","PERIOD":"91.733","FILE":"3159338","SEMIMAJOR_AXIS":"6737.675","MEAN_MOTION":"15.69776052","APOAPSIS":"361.799"},{"ELEMENT_SET_NO":"999","OBJECT_NAME":"STARLINK-3060","LAUNCH_DATE":"2021-09-14","DECAY_DATE":null,"COUNTRY_CODE":"US","GP_ID":"187016671","REF_FRAME":"TEME","CLASSIFICATION_TYPE":"U","TLE_LINE2":"2 49155  70.0020  45.9181 0003276 286.2965  39.7863 15.69756997  3686","PERIAPSIS":"357.387","APOAPSIS":"361.802","SEMIMAJOR_AXIS":"6737.729","MEAN_MOTION":"15.69756997","FILE":"3159338","RCS_SIZE":"LARGE","PERIOD":"91.734","ECCENTRICITY":"0.00032760","MEAN_MOTION_DDOT":"0.0000000000000","EPOCH":"2021-10-12T22:00:01.999584","BSTAR":"-0.00006021400000","TIME_SYSTEM":"UTC","RA_OF_ASC_NODE":"45.9181","MEAN_ELEMENT_THEORY":"SGP4","EPHEMERIS_TYPE":"0","MEAN_MOTION_DOT":"-0.00007396","TLE_LINE1":"1 49155U 21082AB  21285.91668981 -.00007396  00000-0 -60214-4 0  9997","CENTER_NAME":"EARTH","INCLINATION":"70.0020","OBJECT_ID":"2021-082AB","ARG_OF_PERICENTER":"286.2965","SITE":"AFWTR","REV_AT_EPOCH":"368","MEAN_ANOMALY":"39.7863","NORAD_CAT_ID":"49155","OBJECT_TYPE":"PAYLOAD"},{"NORAD_CAT_ID":"49156","OBJECT_TYPE":"PAYLOAD","SITE":"AFWTR","REV_AT_EPOCH":"367","MEAN_ANOMALY":"48.9188","CENTER_NAME":"EARTH","INCLINATION":"70.0020","OBJECT_ID":"2021-082AC","ARG_OF_PERICENTER":"287.8054","EPOCH":"2021-10-12T22:00:01.999584","BSTAR":"-0.00031411000000","TIME_SYSTEM":"UTC","RA_OF_ASC_NODE":"45.9056","MEAN_ELEMENT_THEORY":"SGP4","EPHEMERIS_TYPE":"0","MEAN_MOTION_DOT":"-0.00037613","TLE_LINE1":"1 49156U 21082AC  21285.91668981 -.00037613  00000-0 -31411-3 0  9999","FILE":"3159338","RCS_SIZE":"LARGE","PERIOD":"91.732","ECCENTRICITY":"0.00036130","MEAN_MOTION_DDOT":"0.0000000000000","APOAPSIS":"361.923","SEMIMAJOR_AXIS":"6737.624","MEAN_MOTION":"15.69793763","COUNTRY_CODE":"US","REF_FRAME":"TEME","GP_ID":"187016441","PERIAPSIS":"357.055","TLE_LINE2":"2 49156  70.0020  45.9056 0003613 287.8054  48.9188 15.69793763  3672","CLASSIFICATION_TYPE":"U","ELEMENT_SET_NO":"999","OBJECT_NAME":"STARLINK-3085","LAUNCH_DATE":"2021-09-14","DECAY_DATE":null},{"PERIOD":"91.733","RCS_SIZE":"LARGE","MEAN_MOTION_DDOT":"0.0000000000000","ECCENTRICITY":"0.00037550","FILE":"3159338","MEAN_MOTION":"15.69781141","SEMIMAJOR_AXIS":"6737.660","APOAPSIS":"362.055","REF_FRAME":"TEME","GP_ID":"187016994","TLE_LINE2":"2 49157  70.0009  45.9114 0003755 286.3540  46.1192 15.69781141  3678","PERIAPSIS":"356.995","CLASSIFICATION_TYPE":"U","COUNTRY_CODE":"US","OBJECT_NAME":"STARLINK-3051","DECAY_DATE":null,"LAUNCH_DATE":"2021-09-14","ELEMENT_SET_NO":"999","NORAD_CAT_ID":"49157","OBJECT_TYPE":"PAYLOAD","SITE":"AFWTR","REV_AT_EPOCH":"367","MEAN_ANOMALY":"46.1192","ARG_OF_PERICENTER":"286.3540","CENTER_NAME":"EARTH","OBJECT_ID":"2021-082AD","INCLINATION":"70.0009","MEAN_ELEMENT_THEORY":"SGP4","RA_OF_ASC_NODE":"45.9114","MEAN_MOTION_DOT":"-0.00063087","TLE_LINE1":"1 49157U 21082AD  21285.91668981 -.00063087  00000-0 -52992-3 0  9991","EPHEMERIS_TYPE":"0","BSTAR":"-0.00052992000000","EPOCH":"2021-10-12T22:00:01.999584","TIME_SYSTEM":"UTC"}];
